{
  "links" : {
    "next" : "https://api.nasa.gov/neo/rest/v1/neo/browse?page=36&size=20&api_key=jqAGvNAwUIBu4fl9FSOjdm3V4F7hIglRzI6pdX9d",
    "prev" : "https://api.nasa.gov/neo/rest/v1/neo/browse?page=34&size=20&api_key=jqAGvNAwUIBu4fl9FSOjdm3V4F7hIglRzI6pdX9d",
    "self" : "https://api.nasa.gov/neo/rest/v1/neo/browse?page=35&size=20&api_key=jqAGvNAwUIBu4fl9FSOjdm3V4F7hIglRzI6pdX9d"
  },
  "page" : {
    "size" : 20,
    "total_elements" : 20750,
    "total_pages" : 1038,
    "number" : 35
  },
  "near_earth_objects" : [ {
    "links" : {
      "self" : "https://api.nasa.gov/neo/rest/v1/neo/3393170?api_key=jqAGvNAwUIBu4fl9FSOjdm3V4F7hIglRzI6pdX9d"
    },
    "neo_reference_id" : "3393170",
    "name" : "(2007 VR29)",
    "designation" : "2007 VR29",
    "nasa_jpl_url" : "http://ssd.jpl.nasa.gov/sbdb.cgi?sstr=3393170",
    "absolute_magnitude_h" : 24.5,
    "estimated_diameter" : {
      "kilometers" : {
        "estimated_diameter_min" : 0.0334622374,
        "estimated_diameter_max" : 0.0748238376
      },
      "meters" : {
        "estimated_diameter_min" : 33.4622374455,
        "estimated_diameter_max" : 74.8238376074
      },
      "miles" : {
        "estimated_diameter_min" : 0.0207924639,
        "estimated_diameter_max" : 0.0464933628
      },
      "feet" : {
        "estimated_diameter_min" : 109.7842471007,
        "estimated_diameter_max" : 245.4850393757
      }
    },
    "is_potentially_hazardous_asteroid" : false,
    "close_approach_data" : [ {
      "close_approach_date" : "1914-10-14",
      "epoch_date_close_approach" : -1742486400000,
      "relative_velocity" : {
        "kilometers_per_second" : "19.060370957",
        "kilometers_per_hour" : "68617.3354453483",
        "miles_per_hour" : "42636.1437938055"
      },
      "miss_distance" : {
        "astronomical" : "0.3886302987",
        "lunar" : "151.1771850586",
        "kilometers" : "58138264",
        "miles" : "36125444"
      },
      "orbiting_body" : "Earth"
    }, {
      "close_approach_date" : "2007-11-13",
      "epoch_date_close_approach" : 1194940800000,
      "relative_velocity" : {
        "kilometers_per_second" : "9.3407293738",
        "kilometers_per_hour" : "33626.6257455895",
        "miles_per_hour" : "20894.277536197"
      },
      "miss_distance" : {
        "astronomical" : "0.0494684155",
        "lunar" : "19.2432136536",
        "kilometers" : "7400370",
        "miles" : "4598376.5"
      },
      "orbiting_body" : "Earth"
    } ],
    "orbital_data" : {
      "orbit_id" : "9",
      "orbit_determination_date" : "2017-04-06 09:05:19",
      "first_observation_date" : "2007-11-06",
      "last_observation_date" : "2007-11-20",
      "data_arc_in_days" : 14,
      "observations_used" : 22,
      "orbit_uncertainty" : "8",
      "minimum_orbit_intersection" : ".0468058",
      "jupiter_tisserand_invariant" : "3.892",
      "epoch_osculation" : "2454413.5",
      "eccentricity" : ".4541495384877966",
      "semi_major_axis" : "1.817608589578132",
      "inclination" : "12.28727044735383",
      "ascending_node_longitude" : "222.1353945569184",
      "orbital_period" : "895.0534615007341",
      "perihelion_distance" : ".9921424874697683",
      "perihelion_argument" : "214.6463007781367",
      "aphelion_distance" : "2.643074691686496",
      "perihelion_time" : "2454440.842375466940",
      "mean_anomaly" : "349.0026064458829",
      "mean_motion" : ".402210611415757",
      "equinox" : "J2000",
      "orbit_class" : {
        "orbit_class_type" : "APO",
        "orbit_class_range" : "a (semi-major axis) > 1.0 AU; q (perihelion) < 1.017 AU",
        "orbit_class_description" : "Near-Earth asteroid orbits which cross the Earth’s orbit similar to that of 1862 Apollo"
      }
    },
    "is_sentry_object" : false
  }, {
    "links" : {
      "self" : "https://api.nasa.gov/neo/rest/v1/neo/3393816?api_key=jqAGvNAwUIBu4fl9FSOjdm3V4F7hIglRzI6pdX9d"
    },
    "neo_reference_id" : "3393816",
    "name" : "(2007 VT83)",
    "designation" : "2007 VT83",
    "nasa_jpl_url" : "http://ssd.jpl.nasa.gov/sbdb.cgi?sstr=3393816",
    "absolute_magnitude_h" : 24.3,
    "estimated_diameter" : {
      "kilometers" : {
        "estimated_diameter_min" : 0.0366906138,
        "estimated_diameter_max" : 0.0820427065
      },
      "meters" : {
        "estimated_diameter_min" : 36.6906137531,
        "estimated_diameter_max" : 82.0427064882
      },
      "miles" : {
        "estimated_diameter_min" : 0.0227984834,
        "estimated_diameter_max" : 0.0509789586
      },
      "feet" : {
        "estimated_diameter_min" : 120.3760332259,
        "estimated_diameter_max" : 269.1689931548
      }
    },
    "is_potentially_hazardous_asteroid" : false,
    "close_approach_data" : [ {
      "close_approach_date" : "2007-10-20",
      "epoch_date_close_approach" : 1192863600000,
      "relative_velocity" : {
        "kilometers_per_second" : "9.7468543752",
        "kilometers_per_hour" : "35088.6757508101",
        "miles_per_hour" : "21802.7385519409"
      },
      "miss_distance" : {
        "astronomical" : "0.0687726913",
        "lunar" : "26.7525749207",
        "kilometers" : "10288248",
        "miles" : "6392821"
      },
      "orbiting_body" : "Earth"
    } ],
    "orbital_data" : {
      "orbit_id" : "6",
      "orbit_determination_date" : "2017-04-06 09:05:19",
      "first_observation_date" : "2007-11-07",
      "last_observation_date" : "2007-11-08",
      "data_arc_in_days" : 1,
      "observations_used" : 17,
      "orbit_uncertainty" : "9",
      "minimum_orbit_intersection" : ".0377535",
      "jupiter_tisserand_invariant" : "4.932",
      "epoch_osculation" : "2454412.5",
      "eccentricity" : ".2958938728756202",
      "semi_major_axis" : "1.306866583720068",
      "inclination" : "6.923595043709817",
      "ascending_node_longitude" : "38.34105210200731",
      "orbital_period" : "545.6891350098771",
      "perihelion_distance" : ".9201727689314063",
      "perihelion_argument" : "290.3256715922437",
      "aphelion_distance" : "1.69356039850873",
      "perihelion_time" : "2454347.939643910611",
      "mean_anomaly" : "42.5915172230053",
      "mean_motion" : ".6597162686654626",
      "equinox" : "J2000",
      "orbit_class" : {
        "orbit_class_type" : "APO",
        "orbit_class_range" : "a (semi-major axis) > 1.0 AU; q (perihelion) < 1.017 AU",
        "orbit_class_description" : "Near-Earth asteroid orbits which cross the Earth’s orbit similar to that of 1862 Apollo"
      }
    },
    "is_sentry_object" : false
  }, {
    "links" : {
      "self" : "https://api.nasa.gov/neo/rest/v1/neo/3393821?api_key=jqAGvNAwUIBu4fl9FSOjdm3V4F7hIglRzI6pdX9d"
    },
    "neo_reference_id" : "3393821",
    "name" : "(2007 VM84)",
    "designation" : "2007 VM84",
    "nasa_jpl_url" : "http://ssd.jpl.nasa.gov/sbdb.cgi?sstr=3393821",
    "absolute_magnitude_h" : 23.3,
    "estimated_diameter" : {
      "kilometers" : {
        "estimated_diameter_min" : 0.058150704,
        "estimated_diameter_max" : 0.130028927
      },
      "meters" : {
        "estimated_diameter_min" : 58.1507039646,
        "estimated_diameter_max" : 130.0289270043
      },
      "miles" : {
        "estimated_diameter_min" : 0.0361331611,
        "estimated_diameter_max" : 0.0807962044
      },
      "feet" : {
        "estimated_diameter_min" : 190.7831555951,
        "estimated_diameter_max" : 426.6041048727
      }
    },
    "is_potentially_hazardous_asteroid" : false,
    "close_approach_data" : [ {
      "close_approach_date" : "2007-11-07",
      "epoch_date_close_approach" : 1194422400000,
      "relative_velocity" : {
        "kilometers_per_second" : "13.3346118571",
        "kilometers_per_hour" : "48004.6026855632",
        "miles_per_hour" : "29828.193263149"
      },
      "miss_distance" : {
        "astronomical" : "0.0660891032",
        "lunar" : "25.7086601257",
        "kilometers" : "9886789",
        "miles" : "6143366"
      },
      "orbiting_body" : "Earth"
    } ],
    "orbital_data" : {
      "orbit_id" : "8",
      "orbit_determination_date" : "2017-04-06 09:05:18",
      "first_observation_date" : "2007-11-07",
      "last_observation_date" : "2007-11-11",
      "data_arc_in_days" : 4,
      "observations_used" : 16,
      "orbit_uncertainty" : "9",
      "minimum_orbit_intersection" : ".0623534",
      "jupiter_tisserand_invariant" : "4.890",
      "epoch_osculation" : "2454414.5",
      "eccentricity" : ".1915784347081883",
      "semi_major_axis" : "1.301223831392167",
      "inclination" : "24.72745842890601",
      "ascending_node_longitude" : "44.66482523589163",
      "orbital_period" : "542.158710630027",
      "perihelion_distance" : "1.051937406569064",
      "perihelion_argument" : "7.567721944907908",
      "aphelion_distance" : "1.55051025621527",
      "perihelion_time" : "2454418.354921204751",
      "mean_anomaly" : "357.4402852771697",
      "mean_motion" : ".6640122033300071",
      "equinox" : "J2000",
      "orbit_class" : {
        "orbit_class_type" : "AMO",
        "orbit_class_range" : "1.017 AU < q (perihelion) < 1.3 AU",
        "orbit_class_description" : "Near-Earth asteroid orbits similar to that of 1221 Amor"
      }
    },
    "is_sentry_object" : false
  } ]
}